0 MSG 3 DEB (BAFFLE COVER)
1 40872U 12035F   19052.22891695 -.00000109 +00000-0 +00000-0 0  9992
2 40872 003.4889 085.4347 0092049 161.8428 198.7795 01.02739507020305
0 INTELSAT 34
1 40874U 15039A   19054.92859691 -.00000307 +00000-0 +00000-0 0  9990
2 40874 000.0193 128.3136 0000229 101.0075 202.9568 01.00273780012899
0 INTELSAT 34
1 40874U 15039A   19055.15767337 -.00000307  00000-0  00000+0 0  9990
2 40874   0.0116 119.7570 0000203 135.5865 259.6278  1.00272451 12892
0 INTELSAT 34
1 40874U 15039A   19055.73268017 -.00000306  00000-0  00000+0 0  9994
2 40874   0.0236 127.3282 0000268  37.4720 197.7772  1.00271437 12907
0 EUTE 8 WEST B
1 40875U 15039B   19054.88083164 -.00000087 +00000-0 +00000-0 0  9995
2 40875 000.0657 009.7414 0002763 329.1633 123.6316 01.00271746012906
0 EUTE 8 WEST B
1 40875U 15039B   19055.22532355 -.00000087  00000-0  00000+0 0  9994
2 40875   0.0658  10.5205 0002766 328.9031 247.4694  1.00271764 12912
0 ARIANE 5 R/B
1 40876U 15039C   19054.78642327 +.00000775 +00000-0 +24493-3 0  9995
2 40876 005.2887 282.2502 7229931 174.7592 202.1823 02.34747986029757
0 ARIANE 5 DEB (SYLDA)
1 40877U 15039D   19054.60314391 +.00003860 +00000-0 +11439-2 0  9997
2 40877 004.6636 179.5529 6719387 024.8851 356.1545 03.00638480034424
0 ARIANE 5 DEB (SYLDA)
1 40877U 15039D   19055.26828406  .00003671  00000-0  10763-2 0  9996
2 40877   4.6629 179.1558 6719389  25.6640 356.0384  3.00644086 34419
0 YAOGAN 27
1 40878U 15040A   19055.71652201 -.00000044  00000-0  00000+0 0  9999
2 40878 100.3057 113.0937 0007935 236.9502 123.0853 13.15961500168042
0 YAOGAN 27
1 40878U 15040A   19055.12568457 -.00000044  00000-0  00000+0 0  9993
2 40878 100.3059 112.5183 0007897 238.8938 203.4223 13.15961440167969
0 YAOGAN 27
1 40878U 15040A   19055.48844168 -.00000044  00000-0  00000+0 0  9998
2 40878 100.3055 112.8714 0007937 237.7108 122.3243 13.15961493168016
0 CZ-4C R/B
1 40879U 15040B   19055.24130136 -.00000030  00000-0  32919-4 0  9990
2 40879 100.3240 148.3281 0092784 245.3136 113.8304 13.33228979170185
0 CZ-4C R/B
1 40879U 15040B   19054.71600027 -.00000029 +00000-0 +34783-4 0  9991
2 40879 100.3241 147.7996 0092774 246.5598 112.5749 13.33228959170093
0 GSAT 6
1 40880U 15041A   19054.89871503 -.00000186 +00000-0 +00000-0 0  9997
2 40880 000.0680 276.8585 0008108 003.0167 280.1126 01.00272413012879
0 GSAT 6
1 40880U 15041A   19055.61683088 -.00000185  00000-0  00000+0 0  9995
2 40880   0.0666 276.7593 0008096   3.2189 179.2405  1.00272307 12862
0 INMARSAT 5-F3
1 40882U 15042A   19054.84646069 +.00000028 +00000-0 +00000-0 0  9996
2 40882 000.0141 120.7484 0000609 326.3118 190.6413 01.00269536012790
0 INMARSAT 5-F3
1 40882U 15042A   19055.41507727  .00000029  00000-0  00000+0 0  9997
2 40882   0.0120 120.7567 0000703 312.7072  49.5026  1.00272284 12787
0 MUOS 4
1 40887U 15044A   19054.89723201 -.00000111 +00000-0 +00000-0 0  9996
2 40887 003.5227 335.2706 0058580 359.6670 216.5032 01.00271464012799
0 MUOS 4
1 40887U 15044A   19055.64118377 -.00000110  00000-0  00000+0 0  9990
2 40887   3.5217 335.2798 0058523 359.7521 124.9634  1.00271620 12796
0 ATLAS 5 CENTAUR R/B
1 40888U 15044B   19054.70839080 -.00000297 +00000-0 +00000-0 0  9995
2 40888 018.7955 094.4820 6062986 242.7677 044.1356 02.08784976026534
0 GALILEO 10 (206)
1 40890U 15045B   19055.32490903 -.00000027  00000-0  00000+0 0  9995
2 40890  56.5341 295.2615 0002989  22.0372 338.0307  1.70474687 21529
0 TJS-1
1 40892U 15046A   19054.95275429 -.00000178 +00000-0 +10000-3 0  9992
2 40892 000.0497 265.5716 0002332 084.0338 301.9540 01.00271473012777
0 GAOFEN 9
1 40894U 15047A   19054.89977009 -.00000052 +00000-0 +00000-0 0  9998
2 40894 097.9238 139.2589 0033903 153.2685 207.0282 14.76374017185724
0 GAOFEN 9
1 40894U 15047A   19055.84861785 -.00000052  00000-0  00000+0 0  9996
2 40894  97.9237 140.1900 0033875 150.2023 210.1126 14.76374165185863
0 GAOFEN 9
1 40894U 15047A   19055.44196880 -.00000052  00000-0  00000+0 0  9999
2 40894  97.9237 139.7909 0033860 151.5083 208.7989 14.76374132185808
0 GAOFEN 9
1 40894U 15047A   19055.17086952 -.00000052  00000-0  00000+0 0  9997
2 40894  97.9237 139.5250 0033855 152.3632 207.9392 14.76374094185769
0 BLOCK DM-SL R/B
1 40896U 15048B   19053.88322674 -.00000236 +00000-0 +00000-0 0  9995
2 40896 002.6981 083.0422 0091022 073.7795 287.6187 00.98656992012428
0 OBJECT A
1 40899U 15049A   19055.16092756  .00000167  00000-0  12075-4 0  9998
2 40899  97.4595  60.4637 0013422 247.9151 172.4095 15.16207556189787
0 OBJECT A
1 40899U 15049A   19055.50142133  .00000228  00000-0  15234-4 0  9999
2 40899  97.4596  60.7987 0013394 246.6826 230.9970 15.16208254189836
0 OBJECT A
1 40899U 15049A   19055.83214328  .00000247  00000-0  16199-4 0  9993
2 40899  97.4598  61.1241 0013380 245.4257 236.3039 15.16208651189888
0 NUDT-PHONESAT
1 40900U 15049B   19055.74658810  .00001647  00000-0  74471-4 0  9996
2 40900  97.4398  66.2241 0011830 217.8131 228.5558 15.22299234190321
0 NUDT-PHONESAT
1 40900U 15049B   19055.29323559  .00001681  00000-0  75957-4 0  9993
2 40900  97.4396  65.7749 0011767 220.1282 263.3336 15.22297956190251
0 NUDT-PHONESAT
1 40900U 15049B   19055.01784356  .00001657  00000-0  74917-4 0  9997
2 40900  97.4395  65.5023 0011756 221.1954 194.0074 15.22296792190210
0 ZDPS 2A
1 40901U 15049C   19055.48915524  .00000870  00000-0  46673-4 0  9996
2 40901  97.4603  62.9764 0011967 236.4580 276.0037 15.17517992189911
0 ZDPS 2A
1 40901U 15049C   19055.81369390  .00000804  00000-0  43394-4 0  9991
2 40901  97.4603  63.2961 0011979 234.8441 249.4614 15.17517971189962
0 ZDPS 2A
1 40901U 15049C   19055.08125061  .00000779  00000-0  42157-4 0  9992
2 40901  97.4600  62.5741 0011943 237.9677 207.5014 15.17516656189859
0 ZDPS 2B
1 40902U 15049D   19055.49835309  .00000585  00000-0  32684-4 0  9990
2 40902  97.4527  60.6357 0012119 232.9283 279.5750 15.17292226189898
0 ZDPS 2B
1 40902U 15049D   19055.82272082  .00000595  00000-0  33201-4 0  9997
2 40902  97.4528  60.9549 0012112 231.6772 251.4776 15.17292756189948
0 ZDPS 2B
1 40902U 15049D   19055.15373938  .00000512  00000-0  29028-4 0  9996
2 40902  97.4526  60.2966 0012103 234.6885 196.6422 15.17291211189842
0 XW-2A
1 40903U 15049E   19055.08284108  .00001575  00000-0  39687-4 0  9991
2 40903  97.3532  97.1238 0012949 193.2138 250.8802 15.41391410192599
0 XW-2A
1 40903U 15049E   19055.41300951  .00001554  00000-0  39187-4 0  9995
2 40903  97.3533  97.4561 0013016 191.9699 283.0386 15.41392391192645
0 XW-2A
1 40903U 15049E   19055.79243964  .00001439  00000-0  36442-4 0  9999
2 40903  97.3534  97.8382 0013141 190.6198 228.4771 15.41392852192700
0 KAITUO 1A
1 40904U 15049F   19055.82793002  .00000184  00000-0  13286-4 0  9994
2 40904  97.4653  59.8054 0013136 240.1057 241.6219 15.15251399189753
0 KAITUO 1A
1 40904U 15049F   19055.49740208  .00000148  00000-0  11394-4 0  9995
2 40904  97.4651  59.4807 0013138 241.4695 238.4022 15.15250888189700
0 KAITUO 1A
1 40904U 15049F   19055.15825413  .00000094  00000-0  85306-5 0  9995
2 40904  97.4650  59.1474 0013141 242.7346 188.2909 15.15250329189657
0 OBJECT G
1 40905U 15049G   19055.49674759  .00000064  00000-0  70696-5 0  9991
2 40905  97.4672  57.1767 0014192 234.4239 242.5001 15.14185992189593
0 OBJECT G
1 40905U 15049G   19055.15766501  .00000020  00000-0  47063-5 0  9995
2 40905  97.4671  56.8439 0014223 235.8959 193.8361 15.14185569189545
0 OBJECT G
1 40905U 15049G   19055.82826713  .00000092  00000-0  86066-5 0  9996
2 40905  97.4674  57.5019 0014199 233.1779 249.7379 15.14186376189641
0 XW-2C
1 40906U 15049H   19055.90290380  .00000344  00000-0  21617-4 0  9991
2 40906  97.4650  59.8886 0013376 230.3275 176.8292 15.15516398189768
0 XW-2C
1 40906U 15049H   19055.24514096  .00000479  00000-0  28748-4 0  9992
2 40906  97.4649  59.2419 0013402 232.1818 188.6013 15.15516884189666
0 XW-2C
1 40906U 15049H   19055.51957490  .00000442  00000-0  26778-4 0  9992
2 40906  97.4649  59.5121 0013451 230.6920 246.4125 15.15516861189707
0 XW-2D
1 40907U 15049J   19054.97672078  .00000365  00000-0  22647-4 0  9993
2 40907  97.4627  58.6569 0012746 230.6473 213.7900 15.15691040189632
0 XW-2D
1 40907U 15049J   19055.77586867  .00000298  00000-0  19104-4 0  9991
2 40907  97.4633  59.4429 0012783 227.3952 254.8101 15.15691170189755
0 XW-2D
1 40907U 15049J   19055.45237477  .00000362  00000-0  22478-4 0  9996
2 40907  97.4629  59.1246 0012801 228.4833 289.7058 15.15691400189704
0 XW-2D
1 40907U 15049J   19054.91136438 +.00000350 +00000-0 +21835-4 0  9994
2 40907 097.4628 058.5925 0012715 230.8858 217.1606 15.15690843189623
0 LILACSAT 2
1 40908U 15049K   19054.90456402 -.00000047 +00000-0 +10360-5 0  9996
2 40908 097.4750 057.6054 0014388 236.2205 211.2452 15.13704794189440
0 LILACSAT 2
1 40908U 15049K   19055.76709476 -.00000046  00000-0  10737-5 0  9990
2 40908  97.4753  58.4519 0014378 233.2228 231.4844 15.13704952189578
0 LILACSAT 2
1 40908U 15049K   19055.44654093 -.00000031  00000-0  19085-5 0  9998
2 40908  97.4750  58.1372 0014410 234.2886 284.7206 15.13705004189524
0 LILACSAT 2
1 40908U 15049K   19054.97000841 -.00000030  00000-0  19843-5 0  9992
2 40908  97.4749  57.6694 0014423 235.8477 208.0218 15.13704949189451
0 XW-2E
1 40909U 15049L   19054.97341193  .00000765  00000-0  41438-4 0  9999
2 40909  97.4586  61.1959 0012460 225.9690 164.1643 15.17528269189795
0 XW-2E
1 40909U 15049L   19055.38322839  .00000735  00000-0  39956-4 0  9990
2 40909  97.4584  61.5996 0012508 224.5124 243.0643 15.17528748189854
0 XW-2E
1 40909U 15049L   19055.70954120  .00000656  00000-0  36040-4 0  9993
2 40909  97.4587  61.9211 0012532 223.1634 225.9561 15.17528637189900
